ASRTU-1
1 99130U 24099A   24324.30009259 -.00069719  00000-0 -29464-2 0 00003
2 99130 097.3818 188.8788 0017207 186.1153 216.1008 15.23195348000010
